STARLINK-1621
1 46127U 20057L   26090.91671296  .00332830  00000+0  11885-2 0  9995
2 46127  53.0452 131.8040 0007803   7.9134 354.0356 15.87427373  5996
